[{"OBJECT_NAME":"NOAA 1","OBJECT_ID":"1970-106A","EPOCH":"2026-03-28T21:34:16.128192","MEAN_MOTION":12.54049502,"ECCENTRICITY":0.00320107,"INCLINATION":101.3471,"RA_OF_ASC_NODE":126.1156,"ARG_OF_PERICENTER":143.4788,"MEAN_ANOMALY":28.5803,"EPHEMERIS_TYPE":0,"CLASSIFICATION_TYPE":"U","NORAD_CAT_ID":4793,"ELEMENT_SET_NO":999,"REV_AT_EPOCH":53062,"BSTAR":5.7798106e-5,"MEAN_MOTION_DOT":-3.3e-7,"MEAN_MOTION_DDOT":0},{"OBJECT_NAME":"NOAA 2 (ITOS-D)","OBJECT_ID":"1972-082A","EPOCH":"2026-03-28T21:30:04.367232","MEAN_MOTION":12.53212425,"ECCENTRICITY":0.0003777,"INCLINATION":102.0148,"RA_OF_ASC_NODE":105.5707,"ARG_OF_PERICENTER":327.2347,"MEAN_ANOMALY":97.1722,"EPHEMERIS_TYPE":0,"CLASSIFICATION_TYPE":"U","NORAD_CAT_ID":6235,"ELEMENT_SET_NO":999,"REV_AT_EPOCH":44489,"BSTAR":0.00016091426,"MEAN_MOTION_DOT":-2.1e-7,"MEAN_MOTION_DDOT":0},{"OBJECT_NAME":"NOAA 3","OBJECT_ID":"1973-086A","EPOCH":"2026-03-28T22:45:35.794080","MEAN_MOTION":12.40392287,"ECCENTRICITY":0.00061744,"INCLINATION":102.2895,"RA_OF_ASC_NODE":101.1145,"ARG_OF_PERICENTER":272.1688,"MEAN_ANOMALY":152.6335,"EPHEMERIS_TYPE":0,"CLASSIFICATION_TYPE":"U","NORAD_CAT_ID":6920,"ELEMENT_SET_NO":999,"REV_AT_EPOCH":37195,"BSTAR":0.00021918507,"MEAN_MOTION_DOT":-1.7e-7,"MEAN_MOTION_DDOT":0},{"OBJECT_NAME":"NOAA 4","OBJECT_ID":"1974-089A","EPOCH":"2026-03-28T21:01:38.815680","MEAN_MOTION":12.53202055,"ECCENTRICITY":0.00089066,"INCLINATION":102.0063,"RA_OF_ASC_NODE":99.8133,"ARG_OF_PERICENTER":352.4234,"MEAN_ANOMALY":74.0455,"EPHEMERIS_TYPE":0,"CLASSIFICATION_TYPE":"U","NORAD_CAT_ID":7529,"ELEMENT_SET_NO":999,"REV_AT_EPOCH":34946,"BSTAR":0.0001496595,"MEAN_MOTION_DOT":-2.3e-7,"MEAN_MOTION_DDOT":0},{"OBJECT_NAME":"NOAA 5","OBJECT_ID":"1976-077A","EPOCH":"2026-03-28T21:44:32.889408","MEAN_MOTION":12.37829076,"ECCENTRICITY":0.00100185,"INCLINATION":102.2985,"RA_OF_ASC_NODE":73.516,"ARG_OF_PERICENTER":125.4636,"MEAN_ANOMALY":260.9369,"EPHEMERIS_TYPE":0,"CLASSIFICATION_TYPE":"U","NORAD_CAT_ID":9057,"ELEMENT_SET_NO":999,"REV_AT_EPOCH":24454,"BSTAR":0.00021748986,"MEAN_MOTION_DOT":-1.8e-7,"MEAN_MOTION_DDOT":0},{"OBJECT_NAME":"TIROS N","OBJECT_ID":"1978-096A","EPOCH":"2026-03-28T21:58:44.649120","MEAN_MOTION":14.19346769,"ECCENTRICITY":0.00115523,"INCLINATION":98.461,"RA_OF_ASC_NODE":112.5811,"ARG_OF_PERICENTER":113.305,"MEAN_ANOMALY":246.9344,"EPHEMERIS_TYPE":0,"CLASSIFICATION_TYPE":"U","NORAD_CAT_ID":11060,"ELEMENT_SET_NO":999,"REV_AT_EPOCH":66736,"BSTAR":0.00010408513,"MEAN_MOTION_DOT":1.77e-6,"MEAN_MOTION_DDOT":0},{"OBJECT_NAME":"NOAA 6","OBJECT_ID":"1979-057A","EPOCH":"2026-03-28T22:18:36.362592","MEAN_MOTION":14.35447563,"ECCENTRICITY":0.0010763,"INCLINATION":98.5721,"RA_OF_ASC_NODE":117.9644,"ARG_OF_PERICENTER":132.1529,"MEAN_ANOMALY":228.0572,"EPHEMERIS_TYPE":0,"CLASSIFICATION_TYPE":"U","NORAD_CAT_ID":11416,"ELEMENT_SET_NO":999,"REV_AT_EPOCH":43944,"BSTAR":0.0001321301,"MEAN_MOTION_DOT":3.36e-6,"MEAN_MOTION_DDOT":0},{"OBJECT_NAME":"NOAA 7","OBJECT_ID":"1981-059A","EPOCH":"2026-03-28T18:52:22.343808","MEAN_MOTION":14.17777241,"ECCENTRICITY":0.00122532,"INCLINATION":98.8023,"RA_OF_ASC_NODE":155.6721,"ARG_OF_PERICENTER":134.9735,"MEAN_ANOMALY":225.2436,"EPHEMERIS_TYPE":0,"CLASSIFICATION_TYPE":"U","NORAD_CAT_ID":12553,"ELEMENT_SET_NO":999,"REV_AT_EPOCH":31335,"BSTAR":4.9754137e-5,"MEAN_MOTION_DOT":5.7e-7,"MEAN_MOTION_DDOT":0},{"OBJECT_NAME":"NOAA 8","OBJECT_ID":"1983-022A","EPOCH":"2026-03-28T22:32:21.178464","MEAN_MOTION":14.2977422,"ECCENTRICITY":0.00156396,"INCLINATION":98.7364,"RA_OF_ASC_NODE":100.8002,"ARG_OF_PERICENTER":130.7266,"MEAN_ANOMALY":229.5277,"EPHEMERIS_TYPE":0,"CLASSIFICATION_TYPE":"U","NORAD_CAT_ID":13923,"ELEMENT_SET_NO":999,"REV_AT_EPOCH":23960,"BSTAR":8.3579354e-5,"MEAN_MOTION_DOT":1.7e-6,"MEAN_MOTION_DDOT":0},{"OBJECT_NAME":"NOAA 9","OBJECT_ID":"1984-123A","EPOCH":"2026-03-28T19:16:07.732128","MEAN_MOTION":14.17045126,"ECCENTRICITY":0.00141031,"INCLINATION":99.1073,"RA_OF_ASC_NODE":112.5503,"ARG_OF_PERICENTER":214.2604,"MEAN_ANOMALY":319.0982,"EPHEMERIS_TYPE":0,"CLASSIFICATION_TYPE":"U","NORAD_CAT_ID":15427,"ELEMENT_SET_NO":999,"REV_AT_EPOCH":13203,"BSTAR":7.7722823e-5,"MEAN_MOTION_DOT":1.1e-6,"MEAN_MOTION_DDOT":0},{"OBJECT_NAME":"NOAA 10","OBJECT_ID":"1986-073A","EPOCH":"2026-03-28T22:19:53.764032","MEAN_MOTION":14.29151834,"ECCENTRICITY":0.00111711,"INCLINATION":98.7017,"RA_OF_ASC_NODE":81.2877,"ARG_OF_PERICENTER":227.4954,"MEAN_ANOMALY":160.6268,"EPHEMERIS_TYPE":0,"CLASSIFICATION_TYPE":"U","NORAD_CAT_ID":16969,"ELEMENT_SET_NO":999,"REV_AT_EPOCH":5795,"BSTAR":7.9096329e-5,"MEAN_MOTION_DOT":1.56e-6,"MEAN_MOTION_DDOT":0},{"OBJECT_NAME":"NOAA 11","OBJECT_ID":"1988-089A","EPOCH":"2026-03-28T20:49:09.801984","MEAN_MOTION":14.1582509,"ECCENTRICITY":0.0011276,"INCLINATION":98.6125,"RA_OF_ASC_NODE":36.2646,"ARG_OF_PERICENTER":163.156,"MEAN_ANOMALY":196.9991,"EPHEMERIS_TYPE":0,"CLASSIFICATION_TYPE":"U","NORAD_CAT_ID":19531,"ELEMENT_SET_NO":999,"REV_AT_EPOCH":93611,"BSTAR":5.254136e-5,"MEAN_MOTION_DOT":6.1e-7,"MEAN_MOTION_DDOT":0},{"OBJECT_NAME":"NOAA 12","OBJECT_ID":"1991-032A","EPOCH":"2026-03-28T23:15:42.875136","MEAN_MOTION":14.26723595,"ECCENTRICITY":0.00124838,"INCLINATION":98.6172,"RA_OF_ASC_NODE":77.6731,"ARG_OF_PERICENTER":262.4123,"MEAN_ANOMALY":97.5639,"EPHEMERIS_TYPE":0,"CLASSIFICATION_TYPE":"U","NORAD_CAT_ID":21263,"ELEMENT_SET_NO":999,"REV_AT_EPOCH":81352,"BSTAR":7.0227759e-5,"MEAN_MOTION_DOT":1.26e-6,"MEAN_MOTION_DDOT":0},{"OBJECT_NAME":"NOAA 13","OBJECT_ID":"1993-050A","EPOCH":"2026-03-28T19:56:23.380224","MEAN_MOTION":14.13642569,"ECCENTRICITY":0.00096058,"INCLINATION":98.6962,"RA_OF_ASC_NODE":35.0471,"ARG_OF_PERICENTER":5.959,"MEAN_ANOMALY":354.1696,"EPHEMERIS_TYPE":0,"CLASSIFICATION_TYPE":"U","NORAD_CAT_ID":22739,"ELEMENT_SET_NO":999,"REV_AT_EPOCH":68202,"BSTAR":8.5527992e-5,"MEAN_MOTION_DOT":1.19e-6,"MEAN_MOTION_DDOT":0},{"OBJECT_NAME":"NOAA 14","OBJECT_ID":"1994-089A","EPOCH":"2026-03-28T22:05:00.866688","MEAN_MOTION":14.14659588,"ECCENTRICITY":0.00087219,"INCLINATION":98.5054,"RA_OF_ASC_NODE":61.2258,"ARG_OF_PERICENTER":320.2155,"MEAN_ANOMALY":39.8379,"EPHEMERIS_TYPE":0,"CLASSIFICATION_TYPE":"U","NORAD_CAT_ID":23455,"ELEMENT_SET_NO":999,"REV_AT_EPOCH":61185,"BSTAR":6.1690257e-5,"MEAN_MOTION_DOT":7.7e-7,"MEAN_MOTION_DDOT":0},{"OBJECT_NAME":"NOAA 15","OBJECT_ID":"1998-030A","EPOCH":"2026-03-28T20:08:18.430080","MEAN_MOTION":14.27120119,"ECCENTRICITY":0.00095213,"INCLINATION":98.514,"RA_OF_ASC_NODE":110.6188,"ARG_OF_PERICENTER":217.6267,"MEAN_ANOMALY":142.4249,"EPHEMERIS_TYPE":0,"CLASSIFICATION_TYPE":"U","NORAD_CAT_ID":25338,"ELEMENT_SET_NO":999,"REV_AT_EPOCH":44983,"BSTAR":8.8189358e-5,"MEAN_MOTION_DOT":1.72e-6,"MEAN_MOTION_DDOT":0},{"OBJECT_NAME":"NOAA 16","OBJECT_ID":"2000-055A","EPOCH":"2026-03-28T22:00:53.025696","MEAN_MOTION":14.13903459,"ECCENTRICITY":0.00106795,"INCLINATION":98.4685,"RA_OF_ASC_NODE":106.417,"ARG_OF_PERICENTER":165.702,"MEAN_ANOMALY":194.4458,"EPHEMERIS_TYPE":0,"CLASSIFICATION_TYPE":"U","NORAD_CAT_ID":26536,"ELEMENT_SET_NO":999,"REV_AT_EPOCH":61238,"BSTAR":8.5190482e-5,"MEAN_MOTION_DOT":1.21e-6,"MEAN_MOTION_DDOT":0}]
