NOAA 1                  
1 04793U 70106A   26087.89879778 -.00000033  00000+0  57798-4 0  9999
2 04793 101.3471 126.1156 0032010 143.4788  28.5803 12.54049502530629
NOAA 2 (ITOS-D)         
1 06235U 72082A   26087.89588388 -.00000021  00000+0  16091-3 0  9998
2 06235 102.0148 105.5707 0003777 327.2347  97.1722 12.53212425444895
NOAA 3                  
1 06920U 73086A   26087.94833095 -.00000017  00000+0  21919-3 0  9998
2 06920 102.2895 101.1145 0006174 272.1688 152.6335 12.40392287371959
NOAA 4                  
1 07529U 74089A   26087.87614370 -.00000023  00000+0  14966-3 0  9994
2 07529 102.0063  99.8133 0008906 352.4234  74.0455 12.53202055349462
NOAA 5                  
1 09057U 76077A   26087.90593622 -.00000018  00000+0  21749-3 0  9992
2 09057 102.2985  73.5160 0010018 125.4636 260.9369 12.37829076244548
TIROS N                 
1 11060U 78096A   26087.91579455  .00000177  00000+0  10409-3 0  9997
2 11060  98.4610 112.5811 0011552 113.3050 246.9344 14.19346769667364
NOAA 6                  
1 11416U 79057A   26087.92958753  .00000336  00000+0  13213-3 0  9996
2 11416  98.5721 117.9644 0010763 132.1529 228.0572 14.35447563439441
NOAA 7                  
1 12553U 81059A   26087.78636972  .00000057  00000+0  49754-4 0  9994
2 12553  98.8023 155.6721 0012253 134.9735 225.2436 14.17777241313350
NOAA 8                  
1 13923U 83022A   26087.93913401  .00000170  00000+0  83579-4 0  9999
2 13923  98.7364 100.8002 0015639 130.7266 229.5277 14.29774220239609
NOAA 9                  
1 15427U 84123A   26087.80286727  .00000110  00000+0  77723-4 0  9991
2 15427  99.1073 112.5503 0014103 214.2604 319.0982 14.17045126132037
NOAA 10                 
1 16969U 86073A   26087.93048338  .00000156  00000+0  79096-4 0  9992
2 16969  98.7017  81.2877 0011171 227.4954 160.6268 14.29151834 57955
NOAA 11                 
1 19531U 88089A   26087.86747456  .00000061  00000+0  52541-4 0  9999
2 19531  98.6125  36.2646 0011276 163.1560 196.9991 14.15825090936117
NOAA 12                 
1 21263U 91032A   26087.96924624  .00000126  00000+0  70228-4 0  9995
2 21263  98.6172  77.6731 0012483 262.4123  97.5639 14.26723595813520
NOAA 13                 
1 22739U 93050A   26087.83082616  .00000119  00000+0  85528-4 0  9999
2 22739  98.6962  35.0471 0009605   5.9590 354.1696 14.13642569682026
NOAA 14                 
1 23455U 94089A   26087.92014892  .00000077  00000+0  61690-4 0  9996
2 23455  98.5054  61.2258 0008721 320.2155  39.8379 14.14659588611853
NOAA 15                 
1 25338U 98030A   26087.83910220  .00000172  00000+0  88189-4 0  9996
2 25338  98.5140 110.6188 0009521 217.6267 142.4249 14.27120119449835
NOAA 16                 
1 26536U 00055A   26087.91728039  .00000121  00000+0  85190-4 0  9994
2 26536  98.4685 106.4170 0010679 165.7020 194.4458 14.13903459612381
